SITRO-AIS 8 (ANOKHIN)   
1 57193U 23091AD  24236.58860170  .00013356  00000+0  81035-3 0  9999
2 57193  97.6057 288.3700 0015486 248.6057 111.3520 15.10556807 63678
SITRO-AIS 7 (FARTUSHNIY)
1 57194U 23091AE  24236.57803945  .00013143  00000+0  80833-3 0  9995
2 57194  97.6054 288.2319 0015760 248.8733 111.0812 15.10062567 63664
AVION KALUGA 650        
1 57195U 23091AF  24236.55678905  .00008720  00000+0  55446-3 0  9997
2 57195  97.6100 288.6199 0012093 237.6003 122.4056 15.08998708 63678
HORS 2                  
1 57196U 23091AG  24236.57358252  .00014042  00000+0  82698-3 0  9993
2 57196  97.6075 289.2711 0011698 233.5522 126.4630 15.11667841 63721
A-SEANSAT-PG1           
1 57197U 23091AH  24236.57912074  .00016249  00000+0  94067-3 0  9996
2 57197  97.6056 289.3160 0011368 235.4541 124.5617 15.12258495 63733
YARILO 3                
1 57198U 23091AJ  24236.58966139  .00039832  00000+0  17769-2 0  9995
2 57198  97.6093 291.7129 0010134 226.6177 133.4215 15.21232308 63877
SITRO-AIS 10 (BURDAEV)  
1 57199U 23091AK  24236.60816747  .00015467  00000+0  88940-3 0  9996
2 57199  97.6076 289.4970 0010981 233.2559 126.7664 15.12515117 63746
SITRO-AIS 9 (SHCHUKIN)  
1 57201U 23091AM  24236.60739566  .00015851  00000+0  91198-3 0  9999
2 57201  97.6071 289.4707 0010936 233.1663 126.8565 15.12489850 63743
UTMN 2 (RS27S)          
1 57203U 23091AP  24236.55591551  .00014363  00000+0  84432-3 0  9995
2 57203  97.6079 289.2806 0011669 229.5382 130.4831 15.11730095 63726
SITRO-AIS 12 (SMIRENNIY)
1 57204U 23091AQ  24236.56129814  .00016458  00000+0  94159-3 0  9990
2 57204  97.6078 289.5829 0011096 227.7578 132.2712 15.12682951 63743
ARCCUBE 1 (RS25S)       
1 57205U 23091AR  24236.59928676  .00026575  00000+0  13319-2 0  9996
2 57205  97.6016 290.4946 0009870 230.8824 129.1532 15.17291030 63826
SITRO-AIS 11 (SHEFFER)  
1 57208U 23091AU  24236.60906614  .00016200  00000+0  92412-3 0  9995
2 57208  97.6077 289.6609 0010853 226.9788 133.0534 15.12793776 63757
H2SAT (HEINRICH HERTZ)  
1 57213U 23093A   24234.97410240 -.00000007  00000+0  00000+0 0  9993
2 57213   0.0185  95.4318 0000999 110.3994 116.1024  1.00271862  4251
KUZGTU 1 (RS47S)        
1 57217U 23091AV  24236.58018815  .00012599  00000+0  76842-3 0  9995
2 57217  97.6060 288.4171 0015664 243.1329 116.8300 15.10377821 63675
2023-103B               
1 57422U 23103B   24236.18295296  .00082832  00000+0  46229-3 0  9996
2 57422  96.5742 302.6629 0009108 225.6353 134.4171 15.79112462 62116
FENGYUN 3F              
1 57490U 23111A   24236.60064940  .00000258  00000+0  14252-3 0  9990
2 57490  98.7652 305.0977 0000438 136.3988 223.7222 14.19862599 54832
HJ-2F                   
1 57519U 23116A   24236.55921562  .00020391  00000+0  85594-3 0  9990
2 57519  97.3906 242.1653 0004211  85.1680 275.0038 15.23487594 57940
XRISM                   
1 57800U 23137A   24236.56434230  .00008568  00000+0  62772-3 0  9993
2 57800  31.0033 303.4437 0009867 155.7643 204.3459 15.02228541 52742
